start=new Date('2021-10-31T00:00:00.000Z').valueOf();
sats=[{"OBJECT_ID":"2021-005P","MEAN_MOTION_DDOT":"0.0000000000000","SEMIMAJOR_AXIS":"6925.346","LAUNCH_DATE":"2021-01-20","EPHEMERIS_TYPE":"0","OBJECT_TYPE":"PAYLOAD","ECCENTRICITY":"0.00012460","DECAY_DATE":null,"FILE":"3192905","ARG_OF_PERICENTER":"83.9740","TLE_LINE1":"1 47362U 21005P   21303.43564684 -.00000149  00000-0  88858-5 0  9996","RA_OF_ASC_NODE":"5.0443","TIME_SYSTEM":"UTC","RCS_SIZE":"LARGE","CENTER_NAME":"EARTH","NORAD_CAT_ID":"47362","MEAN_ELEMENT_THEORY":"SGP4","OBJECT_NAME":"STARLINK-2076","BSTAR":"0.00000888580000","CLASSIFICATION_TYPE":"U","PERIAPSIS":"546.348","MEAN_MOTION_DOT":"-0.00000149","PERIOD":"95.592","ELEMENT_SET_NO":"999","EPOCH":"2021-10-30T10:27:19.886976","INCLINATION":"53.0555","APOAPSIS":"548.074","GP_ID":"188516371","COUNTRY_CODE":"US","MEAN_MOTION":"15.06400794","REV_AT_EPOCH":"4320","TLE_LINE2":"2 47362  53.0555   5.0443 0001246  83.9740 276.1391 15.06400794 43201","REF_FRAME":"TEME","SITE":"AFETR","MEAN_ANOMALY":"276.1391"},{"GP_ID":"188515121","COUNTRY_CODE":"US","APOAPSIS":"548.235","TLE_LINE2":"2 47363  53.0551   5.0210 0001458  77.2372 282.8780 15.06396135 43201","REV_AT_EPOCH":"4320","MEAN_MOTION":"15.06396135","MEAN_ANOMALY":"282.8780","REF_FRAME":"TEME","SITE":"AFETR","BSTAR":"0.00000985230000","OBJECT_NAME":"STARLINK-2077","CLASSIFICATION_TYPE":"U","INCLINATION":"53.0551","EPOCH":"2021-10-30T10:32:38.505984","PERIAPSIS":"546.216","MEAN_MOTION_DOT":"-0.00000135","ELEMENT_SET_NO":"999","PERIOD":"95.592","TLE_LINE1":"1 47363U 21005Q   21303.43933456 -.00000135  00000-0  98523-5 0  9999","TIME_SYSTEM":"UTC","RA_OF_ASC_NODE":"5.0210","ARG_OF_PERICENTER":"77.2372","FILE":"3192905","NORAD_CAT_ID":"47363","MEAN_ELEMENT_THEORY":"SGP4","RCS_SIZE":"LARGE","CENTER_NAME":"EARTH","MEAN_MOTION_DDOT":"0.0000000000000","OBJECT_ID":"2021-005Q","EPHEMERIS_TYPE":"0","LAUNCH_DATE":"2021-01-20","SEMIMAJOR_AXIS":"6925.360","OBJECT_TYPE":"PAYLOAD","ECCENTRICITY":"0.00014580","DECAY_DATE":null},{"DECAY_DATE":null,"ECCENTRICITY":"0.00014590","OBJECT_TYPE":"PAYLOAD","EPHEMERIS_TYPE":"0","LAUNCH_DATE":"2021-01-20","SEMIMAJOR_AXIS":"6886.088","MEAN_MOTION_DDOT":"0.0000000000000","OBJECT_ID":"2021-005R","MEAN_ELEMENT_THEORY":"SGP4","NORAD_CAT_ID":"47364","CENTER_NAME":"EARTH","RCS_SIZE":"LARGE","TIME_SYSTEM":"UTC","RA_OF_ASC_NODE":"3.7790","TLE_LINE1":"1 47364U 21005R   21303.64078981  .00575859  00000-0  25192-1 0  9993","FILE":"3193101","ARG_OF_PERICENTER":"113.9230","INCLINATION":"53.0554","EPOCH":"2021-10-30T15:22:44.239584","PERIOD":"94.780","ELEMENT_SET_NO":"999","MEAN_MOTION_DOT":"0.00575859","PERIAPSIS":"506.948","CLASSIFICATION_TYPE":"U","BSTAR":"0.02519200000000","OBJECT_NAME":"STARLINK-2079","MEAN_ANOMALY":"246.1918","SITE":"AFETR","REF_FRAME":"TEME","REV_AT_EPOCH":"4323","TLE_LINE2":"2 47364  53.0554   3.7790 0001459 113.9230 246.1918 15.19301248 43239","MEAN_MOTION":"15.19301248","COUNTRY_CODE":"US","GP_ID":"188521141","APOAPSIS":"508.958"},{"ARG_OF_PERICENTER":"313.0566","FILE":"3192905","TIME_SYSTEM":"UTC","RA_OF_ASC_NODE":"259.1819","TLE_LINE1":"1 47365U 21005S   21303.17832096  .00078212  00000-0  55345-3 0  9993","CENTER_NAME":"EARTH","RCS_SIZE":"LARGE","MEAN_ELEMENT_THEORY":"SGP4","NORAD_CAT_ID":"47365","OBJECT_ID":"2021-005S","MEAN_MOTION_DDOT":"0.0000000000000","SEMIMAJOR_AXIS":"6727.573","LAUNCH_DATE":"2021-01-20","EPHEMERIS_TYPE":"0","ECCENTRICITY":"0.00047790","OBJECT_TYPE":"PAYLOAD","DECAY_DATE":null,"APOAPSIS":"352.653","COUNTRY_CODE":"US","GP_ID":"188515623","MEAN_MOTION":"15.73313158","TLE_LINE2":"2 47365  53.0478 259.1819 0004779 313.0566  47.0052 15.73313158 44665","REV_AT_EPOCH":"4466","SITE":"AFETR","REF_FRAME":"TEME","MEAN_ANOMALY":"47.0052","OBJECT_NAME":"STARLINK-2080","BSTAR":"0.00055345000000","CLASSIFICATION_TYPE":"U","ELEMENT_SET_NO":"999","PERIOD":"91.527","PERIAPSIS":"346.222","MEAN_MOTION_DOT":"0.00078212","INCLINATION":"53.0478","EPOCH":"2021-10-30T04:16:46.930944"},{"OBJECT_TYPE":"PAYLOAD","ECCENTRICITY":"0.00013530","DECAY_DATE":null,"MEAN_MOTION_DDOT":"0.0000000000000","OBJECT_ID":"2021-005T","EPHEMERIS_TYPE":"0","LAUNCH_DATE":"2021-01-20","SEMIMAJOR_AXIS":"6925.351","MEAN_ELEMENT_THEORY":"SGP4","NORAD_CAT_ID":"47366","RCS_SIZE":"LARGE","CENTER_NAME":"EARTH","TLE_LINE1":"1 47366U 21005T   21303.66417404  .00000211  00000-0  33084-4 0  9991","TIME_SYSTEM":"UTC","RA_OF_ASC_NODE":"4.0075","ARG_OF_PERICENTER":"79.5811","FILE":"3193226","INCLINATION":"53.0567","EPOCH":"2021-10-30T15:56:24.637056","PERIAPSIS":"546.279","MEAN_MOTION_DOT":"0.00000211","PERIOD":"95.592","ELEMENT_SET_NO":"999","BSTAR":"0.00003308400000","OBJECT_NAME":"STARLINK-2081","CLASSIFICATION_TYPE":"U","REV_AT_EPOCH":"4323","TLE_LINE2":"2 47366  53.0567   4.0075 0001353  79.5811 280.5330 15.06399344 43230","MEAN_MOTION":"15.06399344","MEAN_ANOMALY":"280.5330","REF_FRAME":"TEME","SITE":"AFETR","GP_ID":"188524563","COUNTRY_CODE":"US","APOAPSIS":"548.153"},{"MEAN_MOTION_DDOT":"0.0000000000000","OBJECT_ID":"2021-005U","EPHEMERIS_TYPE":"0","SEMIMAJOR_AXIS":"6925.373","LAUNCH_DATE":"2021-01-20","ECCENTRICITY":"0.00010740","OBJECT_TYPE":"PAYLOAD","DECAY_DATE":null,"RA_OF_ASC_NODE":"3.9062","TIME_SYSTEM":"UTC","TLE_LINE1":"1 47367U 21005U   21303.68998324 -.00000680  00000-0 -26779-4 0  9994","FILE":"3193078","ARG_OF_PERICENTER":"92.3450","MEAN_ELEMENT_THEORY":"SGP4","NORAD_CAT_ID":"47367","CENTER_NAME":"EARTH","RCS_SIZE":"LARGE","BSTAR":"-0.00002677900000","OBJECT_NAME":"STARLINK-2082","CLASSIFICATION_TYPE":"U","EPOCH":"2021-10-30T16:33:34.551936","INCLINATION":"53.0560","ELEMENT_SET_NO":"999","PERIOD":"95.593","PERIAPSIS":"546.494","MEAN_MOTION_DOT":"-0.00000680","COUNTRY_CODE":"US","GP_ID":"188521157","APOAPSIS":"547.982","TLE_LINE2":"2 47367  53.0560   3.9062 0001074  92.3450 267.7662 15.06391989 43243","REV_AT_EPOCH":"4324","MEAN_MOTION":"15.06391989","MEAN_ANOMALY":"267.7662","SITE":"AFETR","REF_FRAME":"TEME"},{"TLE_LINE2":"2 47368  53.0553   3.9311 0001325  81.0875 279.0264 15.06392554 44185","REV_AT_EPOCH":"4418","MEAN_MOTION":"15.06392554","MEAN_ANOMALY":"279.0264","REF_FRAME":"TEME","SITE":"AFETR","GP_ID":"188521158","COUNTRY_CODE":"US","APOAPSIS":"548.154","INCLINATION":"53.0553","EPOCH":"2021-10-30T16:22:57.560160","MEAN_MOTION_DOT":"0.00001439","PERIAPSIS":"546.319","ELEMENT_SET_NO":"999","PERIOD":"95.593","BSTAR":"0.00011551000000","OBJECT_NAME":"STARLINK-2084","CLASSIFICATION_TYPE":"U","NORAD_CAT_ID":"47368","MEAN_ELEMENT_THEORY":"SGP4","RCS_SIZE":"LARGE","CENTER_NAME":"EARTH","TLE_LINE1":"1 47368U 21005V   21303.68261065  .00001439  00000-0  11551-3 0  9992","TIME_SYSTEM":"UTC","RA_OF_ASC_NODE":"3.9311","FILE":"3193078","ARG_OF_PERICENTER":"81.0875","OBJECT_TYPE":"PAYLOAD","ECCENTRICITY":"0.00013250","DECAY_DATE":null,"MEAN_MOTION_DDOT":"0.0000000000000","OBJECT_ID":"2021-005V","EPHEMERIS_TYPE":"0","LAUNCH_DATE":"2021-01-20","SEMIMAJOR_AXIS":"6925.371"},{"MEAN_MOTION_DDOT":"0.0000000000000","OBJECT_ID":"2021-005W","EPHEMERIS_TYPE":"0","LAUNCH_DATE":"2021-01-20","SEMIMAJOR_AXIS":"6925.316","ECCENTRICITY":"0.00012840","OBJECT_TYPE":"PAYLOAD","DECAY_DATE":null,"TIME_SYSTEM":"UTC","RA_OF_ASC_NODE":"345.1017","TLE_LINE1":"1 47369U 21005W   21303.42274033  .00002530  00000-0  18864-3 0  9991","ARG_OF_PERICENTER":"79.7443","FILE":"3192905","NORAD_CAT_ID":"47369","MEAN_ELEMENT_THEORY":"SGP4","CENTER_NAME":"EARTH","RCS_SIZE":"LARGE","BSTAR":"0.00018864000000","OBJECT_NAME":"STARLINK-2085","CLASSIFICATION_TYPE":"U","EPOCH":"2021-10-30T10:08:44.764512","INCLINATION":"53.0562","PERIOD":"95.591","ELEMENT_SET_NO":"999","PERIAPSIS":"546.292","MEAN_MOTION_DOT":"0.00002530","COUNTRY_CODE":"US","GP_ID":"188516123","APOAPSIS":"548.070","REV_AT_EPOCH":"4348","TLE_LINE2":"2 47369  53.0562 345.1017 0001284  79.7443 280.3691 15.06410634 43480","MEAN_MOTION":"15.06410634","MEAN_ANOMALY":"280.3691","SITE":"AFETR","REF_FRAME":"TEME"},{"MEAN_ELEMENT_THEORY":"SGP4","NORAD_CAT_ID":"47370","RCS_SIZE":"LARGE","CENTER_NAME":"EARTH","TLE_LINE1":"1 47370U 21005X   21303.51307080  .00001452  00000-0  11639-3 0  9997","TIME_SYSTEM":"UTC","RA_OF_ASC_NODE":"324.6678","FILE":"3192905","ARG_OF_PERICENTER":"73.6552","DECAY_DATE":null,"OBJECT_TYPE":"PAYLOAD","ECCENTRICITY":"0.00014030","EPHEMERIS_TYPE":"0","SEMIMAJOR_AXIS":"6925.360","LAUNCH_DATE":"2021-01-20","MEAN_MOTION_DDOT":"0.0000000000000","OBJECT_ID":"2021-005X","MEAN_ANOMALY":"286.4591","REF_FRAME":"TEME","SITE":"AFETR","TLE_LINE2":"2 47370  53.0611 324.6678 0001403  73.6552 286.4591 15.06396164 43789","REV_AT_EPOCH":"4378","MEAN_MOTION":"15.06396164","GP_ID":"188516372","COUNTRY_CODE":"US","APOAPSIS":"548.197","INCLINATION":"53.0611","EPOCH":"2021-10-30T12:18:49.317120","PERIAPSIS":"546.254","MEAN_MOTION_DOT":"0.00001452","PERIOD":"95.592","ELEMENT_SET_NO":"999","CLASSIFICATION_TYPE":"U","BSTAR":"0.00011639000000","OBJECT_NAME":"STARLINK-2086"},{"EPHEMERIS_TYPE":"0","SEMIMAJOR_AXIS":"6925.337","LAUNCH_DATE":"2021-01-20","MEAN_MOTION_DDOT":"0.0000000000000","OBJECT_ID":"2021-005Y","DECAY_DATE":null,"ECCENTRICITY":"0.00012630","OBJECT_TYPE":"PAYLOAD","RA_OF_ASC_NODE":"5.0535","TIME_SYSTEM":"UTC","TLE_LINE1":"1 47371U 21005Y   21303.43195882  .00001326  00000-0  10790-3 0  9991","ARG_OF_PERICENTER":"88.0972","FILE":"3192905","MEAN_ELEMENT_THEORY":"SGP4","NORAD_CAT_ID":"47371","CENTER_NAME":"EARTH","RCS_SIZE":"LARGE","CLASSIFICATION_TYPE":"U","BSTAR":"0.00010790000000","OBJECT_NAME":"STARLINK-2088","EPOCH":"2021-10-30T10:22:01.242048","INCLINATION":"53.0559","PERIOD":"95.592","ELEMENT_SET_NO":"999","PERIAPSIS":"546.327","MEAN_MOTION_DOT":"0.00001326","COUNTRY_CODE":"US","GP_ID":"188515122","APOAPSIS":"548.076","MEAN_ANOMALY":"272.0162","SITE":"AFETR","REF_FRAME":"TEME","TLE_LINE2":"2 47371  53.0559   5.0535 0001263  88.0972 272.0162 15.06403872 43200","REV_AT_EPOCH":"4320","MEAN_MOTION":"15.06403872"}];
